{"type": "FeatureCollection", "features": [ {"type": "Feature", "properties": {"norad_id": 32289, "name": "YAOGAN-3", "group": "resource", "lat": -54.29768469409166, "lon": 34.52602820242319, "alt_km": 605.8772095468576, "timestamp": "2025-12-22T22:44:20.607320+00:00", "meta": {"OBJECT_NAME": "YAOGAN-3", "OBJECT_ID": "2007-055A", "EPOCH": "2025-12-22T19:45:43.617600", "MEAN_MOTION": 14.89900652, "ECCENTRICITY": 0.0001158, "INCLINATION": 97.8347, "RA_OF_ASC_NODE": 23.3567, "ARG_OF_PERICENTER": 83.0216, "MEAN_ANOMALY": 277.1134, "EPHEMERIS_TYPE": 0, "CLASSIFICATION_TYPE": "U", "NORAD_CAT_ID": 32289, "ELEMENT_SET_NO": 999, "REV_AT_EPOCH": 97959, "BSTAR": 0.00023215, "MEAN_MOTION_DOT": 2.177e-05, "MEAN_MOTION_DDOT": 0}, "tle": {"line1": "1 32289U 07055A   25356.82342150  .00002177  00000+0  23215-3 0  9999", "line2": "2 32289  97.8347  23.3567 0001158  83.0216 277.1134 14.89900652979593"}}, "geometry": {"type": "Point", "coordinates": [34.52602820242319, -54.29768469409166]}}, {"type": "Feature", "properties": {"norad_id": 32376, "name": "COSMO-SKYMED 2", "group": "resource", "lat": -58.66378829786854, "lon": -168.7339105225992, "alt_km": 630.38002709601, "timestamp": "2025-12-22T22:44:20.607332+00:00", "meta": {"OBJECT_NAME": "COSMO-SKYMED 2", "OBJECT_ID": "2007-059A", "EPOCH": "2025-12-22T14:54:22.259808", "MEAN_MOTION": 14.821541, "ECCENTRICITY": 0.00013211, "INCLINATION": 97.8804, "RA_OF_ASC_NODE": 177.7961, "ARG_OF_PERICENTER": 82.8176, "MEAN_ANOMALY": 277.3187, "EPHEMERIS_TYPE": 0, "CLASSIFICATION_TYPE": "U", "NORAD_CAT_ID": 32376, "ELEMENT_SET_NO": 999, "REV_AT_EPOCH": 97584, "BSTAR": 6.7643931e-05, "MEAN_MOTION_DOT": 4.86e-06, "MEAN_MOTION_DDOT": 0}, "tle": {"line1": "1 32376U 07059A   25356.62109097  .00000486  00000+0  67644-4 0  9995", "line2": "2 32376  97.8804 177.7961 0001321  82.8176 277.3187 14.82154100975840"}}, "geometry": {"type": "Point", "coordinates": [-168.7339105225992, -58.66378829786854]}}, {"type": "Feature", "properties": {"norad_id": 32382, "name": "RADARSAT-2", "group": "resource", "lat": 43.73809043899241, "lon": -170.30567380071807, "alt_km": 787.5829532286634, "timestamp": "2025-12-22T22:44:20.607342+00:00", "meta": {"OBJECT_NAME": "RADARSAT-2", "OBJECT_ID": "2007-061A", "EPOCH": "2025-12-22T13:42:39.168288", "MEAN_MOTION": 14.29984509, "ECCENTRICITY": 0.00011328, "INCLINATION": 98.579, "RA_OF_ASC_NODE": 1.0182, "ARG_OF_PERICENTER": 84.1294, "MEAN_ANOMALY": 276.0017, "EPHEMERIS_TYPE": 0, "CLASSIFICATION_TYPE": "U", "NORAD_CAT_ID": 32382, "ELEMENT_SET_NO": 999, "REV_AT_EPOCH": 94071, "BSTAR": 6.8465244e-05, "MEAN_MOTION_DOT": 1.33e-06, "MEAN_MOTION_DDOT": 0}, "tle": {"line1": "1 32382U 07061A   25356.57128667  .00000133  00000+0  68465-4 0  9994", "line2": "2 32382  98.5790   1.0182 0001132  84.1294 276.0017 14.29984509940710"}}, "geometry": {"type": "Point", "coordinates": [-170.30567380071807, 43.73809043899241]}}, {"type": "Feature", "properties": {"norad_id": 32783, "name": "CARTOSAT-2A", "group": "resource", "lat": -37.28887512087925, "lon": 52.43676436444962, "alt_km": 631.3287006549863, "timestamp": "2025-12-22T22:44:20.607354+00:00", "meta": {"OBJECT_NAME": "CARTOSAT-2A", "OBJECT_ID": "2008-021A", "EPOCH": "2025-12-22T14:47:23.936064", "MEAN_MOTION": 14.78946789, "ECCENTRICITY": 0.00111512, "INCLINATION": 97.7916, "RA_OF_ASC_NODE": 46.131, "ARG_OF_PERICENTER": 332.2084, "MEAN_ANOMALY": 27.8531, "EPHEMERIS_TYPE": 0, "CLASSIFICATION_TYPE": "U", "NORAD_CAT_ID": 32783, "ELEMENT_SET_NO": 999, "REV_AT_EPOCH": 95270, "BSTAR": -5.8321107e-05, "MEAN_MOTION_DOT": -4.81e-06, "MEAN_MOTION_DDOT": 0}, "tle": {"line1": "1 32783U 08021A   25356.61624926 -.00000481  00000+0 -58321-4 0  9998", "line2": "2 32783  97.7916  46.1310 0011151 332.2084  27.8531 14.78946789952702"}}, "geometry": {"type": "Point", "coordinates": [52.43676436444962, -37.28887512087925]}}, {"type": "Feature", "properties": {"norad_id": 33320, "name": "HUANJING 1A (HJ-1A)", "group": "resource", "lat": -8.550421081769635, "lon": -14.021778024803744, "alt_km": 609.2401256072144, "timestamp": "2025-12-22T22:44:20.607364+00:00", "meta": {"OBJECT_NAME": "HUANJING 1A (HJ-1A)", "OBJECT_ID": "2008-041A", "EPOCH": "2025-12-22T14:41:00.080736", "MEAN_MOTION": 14.83423626, "ECCENTRICITY": 0.001944, "INCLINATION": 97.6541, "RA_OF_ASC_NODE": 344.498, "ARG_OF_PERICENTER": 3.2392, "MEAN_ANOMALY": 356.8945, "EPHEMERIS_TYPE": 0, "CLASSIFICATION_TYPE": "U", "NORAD_CAT_ID": 33320, "ELEMENT_SET_NO": 999, "REV_AT_EPOCH": 93222, "BSTAR": 0.00018712343, "MEAN_MOTION_DOT": 1.49e-05, "MEAN_MOTION_DDOT": 0}, "tle": {"line1": "1 33320U 08041A   25356.61180649  .00001490  00000+0  18712-3 0  9995", "line2": "2 33320  97.6541 344.4980 0019440   3.2392 356.8945 14.83423626932221"}}, "geometry": {"type": "Point", "coordinates": [-14.021778024803744, -8.550421081769635]}}, {"type": "Feature", "properties": {"norad_id": 33321, "name": "HUANJING 1B (HJ-1B)", "group": "resource", "lat": -11.731587329401636, "lon": 166.8925024673194, "alt_km": 647.3749352608538, "timestamp": "2025-12-22T22:44:20.607375+00:00", "meta": {"OBJECT_NAME": "HUANJING 1B (HJ-1B)", "OBJECT_ID": "2008-041B", "EPOCH": "2025-12-22T13:46:55.193952", "MEAN_MOTION": 14.82843274, "ECCENTRICITY": 0.00379463, "INCLINATION": 97.6398, "RA_OF_ASC_NODE": 348.1331, "ARG_OF_PERICENTER": 44.5736, "MEAN_ANOMALY": 315.8519, "EPHEMERIS_TYPE": 0, "CLASSIFICATION_TYPE": "U", "NORAD_CAT_ID": 33321, "ELEMENT_SET_NO": 999, "REV_AT_EPOCH": 93223, "BSTAR": 6.8120857e-05, "MEAN_MOTION_DOT": 5.06e-06, "MEAN_MOTION_DDOT": 0}, "tle": {"line1": "1 33321U 08041B   25356.57424993  .00000506  00000+0  68121-4 0  9991", "line2": "2 33321  97.6398 348.1331 0037946  44.5736 315.8519 14.82843274932231"}}, "geometry": {"type": "Point", "coordinates": [166.8925024673194, -11.731587329401636]}}, {"type": "Feature", "properties": {"norad_id": 33331, "name": "GEOEYE 1", "group": "resource", "lat": -53.10699553636814, "lon": -122.87110449973275, "alt_km": 682.958619654969, "timestamp": "2025-12-22T22:44:20.607386+00:00", "meta": {"OBJECT_NAME": "GEOEYE 1", "OBJECT_ID": "2008-042A", "EPOCH": "2025-12-22T13:28:37.176960", "MEAN_MOTION": 14.6471278, "ECCENTRICITY": 0.00028895, "INCLINATION": 98.124, "RA_OF_ASC_NODE": 67.7181, "ARG_OF_PERICENTER": 241.9162, "MEAN_ANOMALY": 118.1749, "EPHEMERIS_TYPE": 0, "CLASSIFICATION_TYPE": "U", "NORAD_CAT_ID": 33331, "ELEMENT_SET_NO": 999, "REV_AT_EPOCH": 92429, "BSTAR": 0.00010877355, "MEAN_MOTION_DOT": 5.32e-06, "MEAN_MOTION_DDOT": 0}, "tle": {"line1": "1 33331U 08042A   25356.56154140  .00000532  00000+0  10877-3 0  9999", "line2": "2 33331  98.1240  67.7181 0002889 241.9162 118.1749 14.64712780924298"}}, "geometry": {"type": "Point", "coordinates": [-122.87110449973275, -53.10699553636814]}}, {"type": "Feature", "properties": {"norad_id": 33396, "name": "THEOS", "group": "resource", "lat": -71.05254928225757, "lon": -151.37187136813446, "alt_km": 833.1193614421054, "timestamp": "2025-12-22T22:44:20.607396+00:00", "meta": {"OBJECT_NAME": "THEOS", "OBJECT_ID": "2008-049A", "EPOCH": "2025-12-22T14:47:14.444160", "MEAN_MOTION": 14.20098515, "ECCENTRICITY": 0.00012176, "INCLINATION": 98.5855, "RA_OF_ASC_NODE": 54.4143, "ARG_OF_PERICENTER": 92.2124, "MEAN_ANOMALY": 267.9193, "EPHEMERIS_TYPE": 0, "CLASSIFICATION_TYPE": "U", "NORAD_CAT_ID": 33396, "ELEMENT_SET_NO": 999, "REV_AT_EPOCH": 89290, "BSTAR": 3.6743296e-05, "MEAN_MOTION_DOT": 3.6e-07, "MEAN_MOTION_DDOT": 0}, "tle": {"line1": "1 33396U 08049A   25356.61613940  .00000036  00000+0  36743-4 0  9991", "line2": "2 33396  98.5855  54.4143 0001217  92.2124 267.9193 14.20098515892908"}}, "geometry": {"type": "Point", "coordinates": [-151.37187136813446, -71.05254928225757]}}, {"type": "Feature", "properties": {"norad_id": 33412, "name": "COSMO-SKYMED 3", "group": "resource", "lat": -49.76960337054946, "lon": 18.130308616431968, "alt_km": 557.467338365117, "timestamp": "2025-12-22T22:44:20.607407+00:00", "meta": {"OBJECT_NAME": "COSMO-SKYMED 3", "OBJECT_ID": "2008-054A", "EPOCH": "2025-12-22T13:44:39.614208", "MEAN_MOTION": 15.05437898, "ECCENTRICITY": 0.00171233, "INCLINATION": 97.8458, "RA_OF_ASC_NODE": 207.1303, "ARG_OF_PERICENTER": 139.5959, "MEAN_ANOMALY": 220.6542, "EPHEMERIS_TYPE": 0, "CLASSIFICATION_TYPE": "U", "NORAD_CAT_ID": 33412, "ELEMENT_SET_NO": 999, "REV_AT_EPOCH": 93035, "BSTAR": 0.00030744697, "MEAN_MOTION_DOT": 4.363e-05, "MEAN_MOTION_DDOT": 0}, "tle": {"line1": "1 33412U 08054A   25356.57268072  .00004363  00000+0  30745-3 0  9995", "line2": "2 33412  97.8458 207.1303 0017123 139.5959 220.6542 15.05437898930358"}}, "geometry": {"type": "Point", "coordinates": [18.130308616431968, -49.76960337054946]}}, {"type": "Feature", "properties": {"norad_id": 33446, "name": "YAOGAN-4", "group": "resource", "lat": 78.49360590654743, "lon": 150.08990783960235, "alt_km": 622.4803937641764, "timestamp": "2025-12-22T22:44:20.607418+00:00", "meta": {"OBJECT_NAME": "YAOGAN-4", "OBJECT_ID": "2008-061A", "EPOCH": "2025-12-22T07:43:11.170848", "MEAN_MOTION": 14.8270923, "ECCENTRICITY": 0.00130547, "INCLINATION": 97.9196, "RA_OF_ASC_NODE": 286.3274, "ARG_OF_PERICENTER": 289.4771, "MEAN_ANOMALY": 70.5032, "EPHEMERIS_TYPE": 0, "CLASSIFICATION_TYPE": "U", "NORAD_CAT_ID": 33446, "ELEMENT_SET_NO": 999, "REV_AT_EPOCH": 91945, "BSTAR": 0.00016579598, "MEAN_MOTION_DOT": 1.286e-05, "MEAN_MOTION_DDOT": 0}, "tle": {"line1": "1 33446U 08061A   25356.32165707  .00001286  00000+0  16580-3 0  9996", "line2": "2 33446  97.9196 286.3274 0013054 289.4771  70.5032 14.82709230919457"}}, "geometry": {"type": "Point", "coordinates": [150.08990783960235, 78.49360590654743]}}]}